CCSDS_OMM_VERS = 2.0
CREATION_DATE  = 
ORIGINATOR     = 

OBJECT_NAME    = SL-14 R/B
OBJECT_ID      = 1986-046B
CENTER_NAME    = EARTH
REF_FRAME      = TEME
TIME_SYSTEM    = UTC
MEAN_ELEMENT_THEORY = SGP/SGP4

EPOCH          = 2025-11-27T00:28:09.234048
MEAN_MOTION    = 14.85460602
ECCENTRICITY   = .0022462
INCLINATION    = 82.4816
RA_OF_ASC_NODE = 177.1600
ARG_OF_PERICENTER = 204.0903
MEAN_ANOMALY   = 155.9264

EPHEMERIS_TYPE = 0
CLASSIFICATION_TYPE = U
NORAD_CAT_ID   = 16792
ELEMENT_SET_NO = 999
REV_AT_EPOCH   = 11116
BSTAR          = .6109E-4
MEAN_MOTION_DOT = .553E-5
MEAN_MOTION_DDOT = 0

CCSDS_OMM_VERS = 2.0
CREATION_DATE  = 
ORIGINATOR     = 

OBJECT_NAME    = SL-14 R/B
OBJECT_ID      = 1986-055B
CENTER_NAME    = EARTH
REF_FRAME      = TEME
TIME_SYSTEM    = UTC
MEAN_ELEMENT_THEORY = SGP/SGP4

EPOCH          = 2025-11-27T04:06:11.865024
MEAN_MOTION    = 14.85507421
ECCENTRICITY   = .0017897
INCLINATION    = 82.5217
RA_OF_ASC_NODE = 223.0000
ARG_OF_PERICENTER = 315.1177
MEAN_ANOMALY   = 202.0223

EPHEMERIS_TYPE = 0
CLASSIFICATION_TYPE = U
NORAD_CAT_ID   = 16882
ELEMENT_SET_NO = 999
REV_AT_EPOCH   = 10414
BSTAR          = .69555E-4
MEAN_MOTION_DOT = .626E-5
MEAN_MOTION_DDOT = 0

CCSDS_OMM_VERS = 2.0
CREATION_DATE  = 
ORIGINATOR     = 

OBJECT_NAME    = AJISAI (EGS)
OBJECT_ID      = 1986-061A
CENTER_NAME    = EARTH
REF_FRAME      = TEME
TIME_SYSTEM    = UTC
MEAN_ELEMENT_THEORY = SGP/SGP4

EPOCH          = 2025-11-27T04:42:10.341792
MEAN_MOTION    = 12.44514120
ECCENTRICITY   = .0011243
INCLINATION    = 50.0110
RA_OF_ASC_NODE = 48.5125
ARG_OF_PERICENTER = 26.8599
MEAN_ANOMALY   = 188.0639

EPHEMERIS_TYPE = 0
CLASSIFICATION_TYPE = U
NORAD_CAT_ID   = 16908
ELEMENT_SET_NO = 999
REV_AT_EPOCH   = 45523
BSTAR          = .46187E-4
MEAN_MOTION_DOT = -.91E-6
MEAN_MOTION_DDOT = 0

CCSDS_OMM_VERS = 2.0
CREATION_DATE  = 
ORIGINATOR     = 

OBJECT_NAME    = COSMOS 1812
OBJECT_ID      = 1987-003A
CENTER_NAME    = EARTH
REF_FRAME      = TEME
TIME_SYSTEM    = UTC
MEAN_ELEMENT_THEORY = SGP/SGP4

EPOCH          = 2025-11-26T09:17:15.749376
MEAN_MOTION    = 15.71887185
ECCENTRICITY   = .00066076
INCLINATION    = 82.4879
RA_OF_ASC_NODE = 309.6691
ARG_OF_PERICENTER = 108.9028
MEAN_ANOMALY   = 251.2951

EPHEMERIS_TYPE = 0
CLASSIFICATION_TYPE = U
NORAD_CAT_ID   = 17295
ELEMENT_SET_NO = 999
REV_AT_EPOCH   = 12808
BSTAR          = .62996635E-3
MEAN_MOTION_DOT = .82516E-3
MEAN_MOTION_DDOT = 0

CCSDS_OMM_VERS = 2.0
CREATION_DATE  = 
ORIGINATOR     = 

OBJECT_NAME    = SL-14 R/B
OBJECT_ID      = 1987-024B
CENTER_NAME    = EARTH
REF_FRAME      = TEME
TIME_SYSTEM    = UTC
MEAN_ELEMENT_THEORY = SGP/SGP4

EPOCH          = 2025-11-27T00:32:54.691872
MEAN_MOTION    = 14.86001216
ECCENTRICITY   = .0016939
INCLINATION    = 82.5286
RA_OF_ASC_NODE = 189.2180
ARG_OF_PERICENTER = 238.5599
MEAN_ANOMALY   = 121.3961

EPHEMERIS_TYPE = 0
CLASSIFICATION_TYPE = U
NORAD_CAT_ID   = 17567
ELEMENT_SET_NO = 999
REV_AT_EPOCH   = 7288
BSTAR          = .61466E-4
MEAN_MOTION_DOT = .562E-5
MEAN_MOTION_DDOT = 0

CCSDS_OMM_VERS = 2.0
CREATION_DATE  = 
ORIGINATOR     = 

OBJECT_NAME    = COSMOS 1833
OBJECT_ID      = 1987-027A
CENTER_NAME    = EARTH
REF_FRAME      = TEME
TIME_SYSTEM    = UTC
MEAN_ELEMENT_THEORY = SGP/SGP4

EPOCH          = 2025-11-26T20:39:11.144160
MEAN_MOTION    = 14.13017926
ECCENTRICITY   = .00218665
INCLINATION    = 70.9127
RA_OF_ASC_NODE = 182.1585
ARG_OF_PERICENTER = 354.0713
MEAN_ANOMALY   = 6.0146

EPHEMERIS_TYPE = 0
CLASSIFICATION_TYPE = U
NORAD_CAT_ID   = 17589
ELEMENT_SET_NO = 999
REV_AT_EPOCH   = 99578
BSTAR          = -.4815077E-5
MEAN_MOTION_DOT = -.57E-6
MEAN_MOTION_DDOT = 0

CCSDS_OMM_VERS = 2.0
CREATION_DATE  = 
ORIGINATOR     = 

OBJECT_NAME    = SL-16 R/B
OBJECT_ID      = 1987-027B
CENTER_NAME    = EARTH
REF_FRAME      = TEME
TIME_SYSTEM    = UTC
MEAN_ELEMENT_THEORY = SGP/SGP4

EPOCH          = 2025-11-26T20:24:17.926272
MEAN_MOTION    = 14.17149159
ECCENTRICITY   = .00073128
INCLINATION    = 71.0006
RA_OF_ASC_NODE = 133.1996
ARG_OF_PERICENTER = 276.0237
MEAN_ANOMALY   = 84.0053

EPHEMERIS_TYPE = 0
CLASSIFICATION_TYPE = U
NORAD_CAT_ID   = 17590
ELEMENT_SET_NO = 999
REV_AT_EPOCH   = 77
BSTAR          = .15773109E-3
MEAN_MOTION_DOT = .27E-5
MEAN_MOTION_DDOT = 0

CCSDS_OMM_VERS = 2.0
CREATION_DATE  = 
ORIGINATOR     = 

OBJECT_NAME    = SL-14 R/B
OBJECT_ID      = 1987-038B
CENTER_NAME    = EARTH
REF_FRAME      = TEME
TIME_SYSTEM    = UTC
MEAN_ELEMENT_THEORY = SGP/SGP4

EPOCH          = 2025-11-26T16:41:42.235872
MEAN_MOTION    = 14.85239003
ECCENTRICITY   = .0020285
INCLINATION    = 82.5030
RA_OF_ASC_NODE = 33.8110
ARG_OF_PERICENTER = 141.7419
MEAN_ANOMALY   = 218.5241

EPHEMERIS_TYPE = 0
CLASSIFICATION_TYPE = U
NORAD_CAT_ID   = 17912
ELEMENT_SET_NO = 999
REV_AT_EPOCH   = 6394
BSTAR          = .66669752E-4
MEAN_MOTION_DOT = .598E-5
MEAN_MOTION_DDOT = 0

CCSDS_OMM_VERS = 2.0
CREATION_DATE  = 
ORIGINATOR     = 

OBJECT_NAME    = COSMOS 1844
OBJECT_ID      = 1987-041A
CENTER_NAME    = EARTH
REF_FRAME      = TEME
TIME_SYSTEM    = UTC
MEAN_ELEMENT_THEORY = SGP/SGP4

EPOCH          = 2025-11-27T00:06:26.822304
MEAN_MOTION    = 14.14528440
ECCENTRICITY   = .0030763
INCLINATION    = 70.8997
RA_OF_ASC_NODE = 250.7579
ARG_OF_PERICENTER = 181.6644
MEAN_ANOMALY   = 178.4381

EPHEMERIS_TYPE = 0
CLASSIFICATION_TYPE = U
NORAD_CAT_ID   = 17973
ELEMENT_SET_NO = 999
REV_AT_EPOCH   = 98906
BSTAR          = .58685E-5
MEAN_MOTION_DOT = -.37E-6
MEAN_MOTION_DDOT = 0

CCSDS_OMM_VERS = 2.0
CREATION_DATE  = 
ORIGINATOR     = 

OBJECT_NAME    = SL-14 R/B
OBJECT_ID      = 1987-055B
CENTER_NAME    = EARTH
REF_FRAME      = TEME
TIME_SYSTEM    = UTC
MEAN_ELEMENT_THEORY = SGP/SGP4

EPOCH          = 2025-11-26T19:48:04.739040
MEAN_MOTION    = 14.85495596
ECCENTRICITY   = .00205604
INCLINATION    = 82.4993
RA_OF_ASC_NODE = 85.9854
ARG_OF_PERICENTER = 357.9315
MEAN_ANOMALY   = 2.1812

EPHEMERIS_TYPE = 0
CLASSIFICATION_TYPE = U
NORAD_CAT_ID   = 18153
ELEMENT_SET_NO = 999
REV_AT_EPOCH   = 5466
BSTAR          = .72008778E-4
MEAN_MOTION_DOT = .648E-5
MEAN_MOTION_DDOT = 0

CCSDS_OMM_VERS = 2.0
CREATION_DATE  = 
ORIGINATOR     = 

OBJECT_NAME    = COSMOS 1867
OBJECT_ID      = 1987-060A
CENTER_NAME    = EARTH
REF_FRAME      = TEME
TIME_SYSTEM    = UTC
MEAN_ELEMENT_THEORY = SGP/SGP4

EPOCH          = 2025-11-26T19:32:05.021664
MEAN_MOTION    = 14.31482473
ECCENTRICITY   = .00136274
INCLINATION    = 65.0103
RA_OF_ASC_NODE = 234.8000
ARG_OF_PERICENTER = 269.4725
MEAN_ANOMALY   = 90.4798

EPHEMERIS_TYPE = 0
CLASSIFICATION_TYPE = U
NORAD_CAT_ID   = 18187
ELEMENT_SET_NO = 999
REV_AT_EPOCH   = 521
BSTAR          = .37774554E-4
MEAN_MOTION_DOT = 0
MEAN_MOTION_DDOT = 0

CCSDS_OMM_VERS = 2.0
CREATION_DATE  = 
ORIGINATOR     = 

OBJECT_NAME    = COSMOS 1892
OBJECT_ID      = 1987-088A
CENTER_NAME    = EARTH
REF_FRAME      = TEME
TIME_SYSTEM    = UTC
MEAN_ELEMENT_THEORY = SGP/SGP4

EPOCH          = 2025-11-27T05:08:21.371136
MEAN_MOTION    = 16.17077046
ECCENTRICITY   = .000554
INCLINATION    = 82.4613
RA_OF_ASC_NODE = 61.1372
ARG_OF_PERICENTER = 268.6836
MEAN_ANOMALY   = 91.3816

EPHEMERIS_TYPE = 0
CLASSIFICATION_TYPE = U
NORAD_CAT_ID   = 18421
ELEMENT_SET_NO = 999
REV_AT_EPOCH   = 8883
BSTAR          = .69267E-3
MEAN_MOTION_DOT = .1032173E-1
MEAN_MOTION_DDOT = .74501E-3

