SL-14 R/B               
1 16792U 86046B   25331.01955132  .00000553  00000+0  61090-4 0  9991
2 16792  82.4816 177.1600 0022462 204.0903 155.9264 14.85460602111160
SL-14 R/B               
1 16882U 86055B   25331.17097066  .00000626  00000+0  69555-4 0  9996
2 16882  82.5217 223.0000 0017897 315.1177 202.0223 14.85507421104144
AJISAI (EGS)            
1 16908U 86061A   25331.19595303 -.00000091  00000+0  46187-4 0  9994
2 16908  50.0110  48.5125 0011243  26.8599 188.0639 12.44514120455236
COSMOS 1812             
1 17295U 87003A   25330.38698784  .00082516  00000+0  62997-3 0  9995
2 17295  82.4879 309.6691 0006607 108.9028 251.2951 15.71887185128080
SL-14 R/B               
1 17567U 87024B   25331.02285523  .00000562  00000+0  61466-4 0  9997
2 17567  82.5286 189.2180 0016939 238.5599 121.3961 14.86001216 72884
COSMOS 1833             
1 17589U 87027A   25330.86054565 -.00000057  00000+0 -48151-5 0  9993
2 17589  70.9127 182.1585 0021866 354.0713   6.0146 14.13017926995783
SL-16 R/B               
1 17590U 87027B   25330.85020748  .00000270  00000+0  15773-3 0  9997
2 17590  71.0006 133.1996 0007312 276.0237  84.0053 14.17149159   776
SL-14 R/B               
1 17912U 87038B   25330.69562773  .00000598  00000+0  66670-4 0  9994
2 17912  82.5030  33.8110 0020285 141.7419 218.5241 14.85239003 63940
COSMOS 1844             
1 17973U 87041A   25331.00447711 -.00000037  00000+0  58685-5 0  9992
2 17973  70.8997 250.7579 0030763 181.6644 178.4381 14.14528440989060
SL-14 R/B               
1 18153U 87055B   25330.82505485  .00000648  00000+0  72009-4 0  9992
2 18153  82.4993  85.9854 0020560 357.9315   2.1812 14.85495596 54661
COSMOS 1867             
1 18187U 87060A   25330.81394701  .00000000  00000+0  37775-4 0  9994
2 18187  65.0103 234.8000 0013627 269.4725  90.4798 14.31482473  5215
COSMOS 1892             
1 18421U 87088A   25331.21413624  .01032173  74501-3  69267-3 0  9994
2 18421  82.4613  61.1372 0005540 268.6836  91.3816 16.17077046 88839
